{
  "schema_version": 1,
  "seed": 123456789,
  "age_s": 7.1051001508061784e+16,
  "stars": [
    {
      "mass_kg": 2.2399316557768857e+30,
      "radius_m": 744464428.3033822,
      "luminosity_w": 6.158029133898099e+26,
      "temperature_k": 6283.951160239945,
      "main_sequence_lifetime_s": 2.344732824120492e+17,
      "orbit": null
    },
    {
      "mass_kg": 1.909950317362499e+30,
      "radius_m": 673512728.3924899,
      "luminosity_w": 3.2552994933649986e+26,
      "temperature_k": 5633.381661140236,
      "main_sequence_lifetime_s": 3.492409059207977e+17,
      "orbit": {
        "semi_major_axis_m": 57263714836484.91,
        "eccentricity": 0.16669957582757877,
        "inclination_rad": 0.03840172733837074,
        "raan_rad": 2.81815463722151,
        "arg_periapsis_rad": 1.894581457974511,
        "mean_anomaly_epoch_rad": 3.859100375187903
      }
    }
  ],
  "planet_host": "Primary",
  "planets": [
    {
      "class": "GasGiant",
      "mass_kg": 5.568172029600619e+26,
      "radius_m": 71788469.99175496,
      "orbit": {
        "semi_major_axis_m": 1551495766849.3896,
        "eccentricity": 0.1763930771157846,
        "inclination_rad": 0.014014698973407664,
        "raan_rad": 3.2142017099305797,
        "arg_periapsis_rad": 2.7192361259580897,
        "mean_anomaly_epoch_rad": 3.3681455869658223
      },
      "secular": {
        "apsidal_rad_per_s": 2.1003498956592226e-17,
        "nodal_rad_per_s": 0.0,
        "migration_m_per_s": 0.0
      },
      "axial_tilt_rad": 0.007147770955818655,
      "axial_precession_rad_per_s": 5.529522652889691e-12,
      "rotation_period_s": 49430.57465412493,
      "spin_drift_s_per_s": 2.362143523100568e-13,
      "state": "Living",
      "moons": [
        {
          "mass_kg": 1.853009332720318e+22,
          "radius_m": 1138210.4822256472,
          "orbit": {
            "semi_major_axis_m": 325593904.8457353,
            "eccentricity": 0.042924527801660464,
            "inclination_rad": 0.017414016283270037,
            "raan_rad": 5.826634037012885,
            "arg_periapsis_rad": 6.057546213937744,
            "mean_anomaly_epoch_rad": 0.9486207133876398
          },
          "secular": {
            "apsidal_rad_per_s": 1.9211382851012084e-12,
            "nodal_rad_per_s": -9.148277548100993e-13,
            "migration_m_per_s": 0.000014190801940196337
          },
          "tidally_locked": true,
          "rotation_period_s": 191485.1431083901,
          "doom_time_s": null
        },
        {
          "mass_kg": 2.499180633466085e+22,
          "radius_m": 1257561.5806915055,
          "orbit": {
            "semi_major_axis_m": 552501321.0548776,
            "eccentricity": 0.012734453255017488,
            "inclination_rad": 0.005638707374091997,
            "raan_rad": 5.664286310564602,
            "arg_periapsis_rad": 5.536300890700523,
            "mean_anomaly_epoch_rad": 3.8032234564224314
          },
          "secular": {
            "apsidal_rad_per_s": 4.247204350521952e-12,
            "nodal_rad_per_s": -2.0224782621533102e-12,
            "migration_m_per_s": 1.0442709071247999e-6
          },
          "tidally_locked": true,
          "rotation_period_s": 423273.09665825305,
          "doom_time_s": null
        },
        {
          "mass_kg": 5.690909859875048e+22,
          "radius_m": 1654463.8447806318,
          "orbit": {
            "semi_major_axis_m": 1412157333.7713063,
            "eccentricity": 0.04477574291557899,
            "inclination_rad": 0.017305737627608283,
            "raan_rad": 0.8232981222929259,
            "arg_periapsis_rad": 1.8409827072168872,
            "mean_anomaly_epoch_rad": 2.8766871359520536
          },
          "secular": {
            "apsidal_rad_per_s": 1.735280444552733e-11,
            "nodal_rad_per_s": -8.26324021215587e-12,
            "migration_m_per_s": 1.363557734821223e-8
          },
          "tidally_locked": true,
          "rotation_period_s": 1729598.5519845742,
          "doom_time_s": null
        },
        {
          "mass_kg": 2.290154136764703e+22,
          "radius_m": 1221476.032291819,
          "orbit": {
            "semi_major_axis_m": 3436993039.520808,
            "eccentricity": 0.023362331703195575,
            "inclination_rad": 0.043579752100344614,
            "raan_rad": 2.5116887042921907,
            "arg_periapsis_rad": 5.973830869870128,
            "mean_anomaly_epoch_rad": 4.817175742568253
          },
          "secular": {
            "apsidal_rad_per_s": 6.583631639352256e-11,
            "nodal_rad_per_s": -3.135062685405836e-11,
            "migration_m_per_s": 4.118422710818198e-11
          },
          "tidally_locked": true,
          "rotation_period_s": 6567327.333591665,
          "doom_time_s": null
        },
        {
          "mass_kg": 1.318689005122749e+23,
          "radius_m": 2189328.045155174,
          "orbit": {
            "semi_major_axis_m": 8605433447.733385,
            "eccentricity": 0.07279591756107791,
            "inclination_rad": 0.023322252967999845,
            "raan_rad": 6.006034654378181,
            "arg_periapsis_rad": 0.9617750165184585,
            "mean_anomaly_epoch_rad": 1.9211739129401961
          },
          "secular": {
            "apsidal_rad_per_s": 2.6100635550920867e-10,
            "nodal_rad_per_s": -1.242887407186708e-10,
            "migration_m_per_s": 1.5231443202029435e-12
          },
          "tidally_locked": false,
          "rotation_period_s": 76369.92291021247,
          "doom_time_s": null
        }
      ],
      "calendar": null
    }
  ],
  "anchor_planet": 4
}
